{
  "norad_id": 68536,
  "name": "STARLINK-37173",
  "history": [
    {
      "epoch": "2026-04-07T01:11:47.193792Z",
      "apogee_km": 288.21103266770115,
      "perigee_km": 287.22448616330803,
      "latitude_deg": -2.5513387816418178e-05,
      "longitude_deg": 153.8818178614923,
      "height_km": 288.18984181545824,
      "semi_major_axis_km": 6665.854759415504,
      "eccentricity": 7.4e-05,
      "inclination_deg": 53.161,
      "raan_deg": 7.1608,
      "arg_perigee_deg": 336.7696,
      "mean_anomaly_deg": 23.3299,
      "mean_motion_rev_day": 15.95214145
    },
    {
      "epoch": "2026-04-09T20:00:01.999008Z",
      "apogee_km": 318.0093536483164,
      "perigee_km": 316.9541241350671,
      "latitude_deg": 52.10834460107428,
      "longitude_deg": -38.24005303642246,
      "height_km": 323.232704671506,
      "semi_major_axis_km": 6695.6187388916915,
      "eccentricity": 7.88e-05,
      "inclination_deg": 53.16,
      "raan_deg": 353.0265,
      "arg_perigee_deg": 94.0639,
      "mean_anomaly_deg": 6.1952,
      "mean_motion_rev_day": 15.84589186
    },
    {
      "epoch": "2026-04-10T04:39:55.780704Z",
      "apogee_km": 323.68101133006803,
      "perigee_km": 315.33962740558036,
      "latitude_deg": 2.749684282509218e-05,
      "longitude_deg": 82.79406547440045,
      "height_km": 317.37421965730147,
      "semi_major_axis_km": 6697.647319367824,
      "eccentricity": 0.00062271,
      "inclination_deg": 53.1601,
      "raan_deg": 351.2082,
      "arg_perigee_deg": 42.9969,
      "mean_anomaly_deg": 317.1541,
      "mean_motion_rev_day": 15.83869331
    }
  ]
}